NORAD_CAT_ID,OBJECT_NAME,OBJECT_TYPE,EPOCH,MEAN_MOTION,ECCENTRICITY,INCLINATION,RA_OF_ASC_NODE,ARG_OF_PERICENTER,MEAN_ANOMALY,BSTAR,MEAN_MOTION_DOT,MEAN_MOTION_DDOT,TLE_LINE0,TLE_LINE1,TLE_LINE2,SEMIMAJOR_AXIS,PERIOD,APOGEE,PERIGEE,DECAYED
49736.0,STARLINK-3148,PAYLOAD,2024-04-20 19:51:07,15.08842099,0.0001282,53.2197,356.9412,108.0925,252.0207,0.00068389,0.00010614,0.0,0 STARLINK-3148,1 49736U 21115N   24111.82716591  .00010614  00000-0  68389-3 0  9996,2 49736  53.2197 356.9412 0001282 108.0925 252.0207 15.08842099132804,6917.874,95.437,540.626,538.852,0.0
49736.0,STARLINK-3148,PAYLOAD,2024-04-20 21:26:30,15.08841915,0.000143,53.2193,356.6434,112.8713,247.2431,0.00077865,0.00012127,0.0,0 STARLINK-3148,1 49736U 21115N   24111.89340558  .00012127  00000-0  77865-3 0  9999,2 49736  53.2193 356.6434 0001430 112.8713 247.2431 15.08841915131703,6917.875,95.437,540.729,538.75,0.0
49736.0,STARLINK-3148,PAYLOAD,2024-04-21 02:12:39,15.08843344,0.0001355,53.2191,355.7513,107.9527,252.1613,0.00090517,0.00014148,0.0,0 STARLINK-3148,1 49736U 21115N   24112.09212583  .00014148  00000-0  90517-3 0  9992,2 49736  53.2191 355.7513 0001355 107.9527 252.1613 15.08843344131731,6917.87,95.437,540.673,538.798,0.0
49736.0,STARLINK-3148,PAYLOAD,2024-04-21 21:17:17,15.08822372,0.0001674,53.2184,352.1792,119.0618,241.0542,0.00070199,0.00010896,0.0,0 STARLINK-3148,1 49736U 21115N   24112.88701136  .00010896  00000-0  70199-3 0  9996,2 49736  53.2184 352.1792 0001674 119.0618 241.0542 15.08822372132964,6917.934,95.439,540.957,538.641,0.0
49736.0,STARLINK-3148,PAYLOAD,2024-04-21 22:52:40,15.08823673,0.0001722,53.2186,351.8829,118.8599,241.2566,0.00077785,0.00012108,0.0,0 STARLINK-3148,1 49736U 21115N   24112.95325228  .00012108  00000-0  77785-3 0  9994,2 49736  53.2186 351.8829 0001722 118.8599 241.2566 15.08823673131863,6917.93,95.439,540.987,538.604,0.0
49736.0,STARLINK-3148,PAYLOAD,2024-04-22 19:32:42,15.0882641,0.0001699,53.2185,348.0219,112.9617,247.1554,0.000345,5.205e-05,0.0,0 STARLINK-3148,1 49736U 21115N   24113.81438223  .00005205  00000-0  34500-3 0  9998,2 49736  53.2185 348.0219 0001699 112.9617 247.1554 15.08826410133105,6917.922,95.438,540.962,538.612,0.0
49736.0,STARLINK-3148,PAYLOAD,2024-04-23 20:58:54,15.08819624,0.0001629,53.2179,343.2648,85.3857,274.7321,0.00010684,1.412e-05,0.0,0 STARLINK-3148,1 49736U 21115N   24114.87424073  .00001412  00000-0  10684-3 0  9996,2 49736  53.2179 343.2648 0001629  85.3857 274.7321 15.08819624133267,6917.943,95.439,540.935,538.681,0.0
49736.0,STARLINK-3148,PAYLOAD,2024-04-23 22:34:17,15.08823718,0.0002055,53.2195,342.9697,50.8001,309.3174,0.00022676,3.321e-05,0.0,0 STARLINK-3148,1 49736U 21115N   24114.94048328  .00003321  00000-0  22676-3 0  9994,2 49736  53.2195 342.9697 0002055  50.8001 309.3174 15.08823718132165,6917.93,95.439,541.217,538.374,0.0
49736.0,STARLINK-3148,PAYLOAD,2024-04-24 00:09:40,15.08829282,0.0001768,53.2195,342.6676,65.169,294.9486,0.00032608,4.904e-05,0.0,0 STARLINK-3148,1 49736U 21115N   24115.00672075  .00004904  00000-0  32608-3 0  9998,2 49736  53.2195 342.6676 0001768  65.1690 294.9486 15.08829282133283,6917.913,95.438,541.001,538.555,0.0
49736.0,STARLINK-3148,PAYLOAD,2024-04-24 20:49:40,15.08873945,0.0001554,53.2176,338.8015,64.6097,295.5056,0.0011107,0.00017449,0.0,0 STARLINK-3148,1 49736U 21115N   24115.86782692  .00017449  00000-0  11107-2 0  9997,2 49736  53.2176 338.8015 0001554  64.6097 295.5056 15.08873945133414,6917.777,95.435,540.717,538.567,0.0
49736.0,STARLINK-3148,PAYLOAD,2024-04-24 22:25:03,15.08885719,0.0001605,53.2178,338.5039,60.5156,299.5996,0.001401,0.00022107,0.0,0 STARLINK-3148,1 49736U 21115N   24115.93406417  .00022107  00000-0  14010-2 0  9996,2 49736  53.2178 338.5039 0001605  60.5156 299.5996 15.08885719132314,6917.741,95.435,540.716,538.495,0.0
49736.0,STARLINK-3148,PAYLOAD,2024-04-25 00:00:26,15.08891541,0.0001499,53.2177,338.2087,66.4094,293.7055,0.0015609,0.00024676,0.0,0 STARLINK-3148,1 49736U 21115N   24116.00030141  .00024676  00000-0  15609-2 0  9990,2 49736  53.2177 338.2087 0001499  66.4094 293.7055 15.08891541133436,6917.723,95.434,540.625,538.551,0.0
49736.0,STARLINK-3148,PAYLOAD,2024-04-25 14:18:54,15.08855898,0.0001735,53.2168,335.5324,79.0575,281.0612,0.00068754,0.00010676,0.0,0 STARLINK-3148,1 49736U 21115N   24116.59646231  .00010676  00000-0  68754-3 0  9992,2 49736  53.2168 335.5324 0001735  79.0575 281.0612 15.08855898132418,6917.832,95.437,540.897,538.497,0.0
49736.0,STARLINK-3148,PAYLOAD,2024-04-25 20:40:26,15.08858749,9.86e-05,53.2172,334.3422,94.1132,265.9973,0.0014809,0.00023371,0.0,0 STARLINK-3148,1 49736U 21115N   24116.86141877  .00023371  00000-0  14809-2 0  9995,2 49736  53.2172 334.3422 0000986  94.1132 265.9973 15.08858749133569,6917.823,95.436,540.37,539.006,0.0
49736.0,STARLINK-3148,PAYLOAD,2024-04-26 07:48:08,15.0884924,0.000131,53.2154,332.2638,52.6118,307.4993,0.00079221,0.00012346,0.0,0 STARLINK-3148,1 49736U 21115N   24117.32509992  .00012346  00000-0  79221-3 0  9993,2 49736  53.2154 332.2638 0001310  52.6118 307.4993 15.08849240133638,6917.852,95.437,540.623,538.811,0.0
49736.0,STARLINK-3148,PAYLOAD,2024-04-26 14:09:41,15.08839425,0.0001302,53.2166,331.0717,78.5338,281.5801,0.00072217,0.00011224,0.0,0 STARLINK-3148,1 49736U 21115N   24117.59006120  .00011224  00000-0  72217-3 0  9999,2 49736  53.2166 331.0717 0001302  78.5338 281.5801 15.08839425132563,6917.882,95.438,540.648,538.846,0.0
49736.0,STARLINK-3148,PAYLOAD,2024-04-26 20:31:13,15.08847456,0.0001089,53.2152,329.8822,76.8251,283.2863,0.0003228,4.854e-05,0.0,0 STARLINK-3148,1 49736U 21115N   24117.85501851  .00004854  00000-0  32280-3 0  9996,2 49736  53.2152 329.8822 0001089  76.8251 283.2863 15.08847456133715,6917.858,95.437,540.476,538.969,0.0
49736.0,STARLINK-3148,PAYLOAD,2024-04-27 07:38:55,15.08852506,0.0001047,53.216,327.801,65.4779,294.6322,0.00046218,7.078e-05,0.0,0 STARLINK-3148,1 49736U 21115N   24118.31869495  .00007078  00000-0  46218-3 0  9996,2 49736  53.2160 327.8010 0001047  65.4779 294.6322 15.08852506132676,6917.842,95.437,540.431,538.983,0.0
49736.0,STARLINK-3148,PAYLOAD,2024-04-27 20:22:00,15.08841515,0.0001145,53.2166,325.4213,86.6534,273.4589,6.4607e-05,7.41e-06,0.0,0 STARLINK-3148,1 49736U 21115N   24118.84861917  .00000741  00000-0  64607-4 0  9998,2 49736  53.2166 325.4213 0001145  86.6534 273.4589 15.08841515133864,6917.876,95.437,540.533,538.949,0.0
49736.0,STARLINK-3148,PAYLOAD,2024-04-28 20:12:47,15.08839303,0.0001051,53.2176,320.9588,96.9442,263.167,0.00012167,1.649e-05,0.0,0 STARLINK-3148,1 49736U 21115N   24119.84222187  .00001649  00000-0  12167-3 0  9990,2 49736  53.2176 320.9588 0001051  96.9442 263.1670 15.08839303132901,6917.883,95.438,540.475,539.02,0.0
49736.0,STARLINK-3148,PAYLOAD,2024-04-29 20:03:35,15.08840304,0.000104,53.2181,316.502,85.4648,274.6463,0.00010264,1.346e-05,0.0,0 STARLINK-3148,1 49736U 21115N   24120.83582366  .00001346  00000-0  10264-3 0  9999,2 49736  53.2181 316.5020 0001040  85.4648 274.6463 15.08840304133055,6917.879,95.438,540.464,539.025,0.0
49736.0,STARLINK-3148,PAYLOAD,2024-04-30 05:35:53,15.08840346,9.98e-05,53.2166,314.7153,93.4851,266.6255,0.00014635,2.042e-05,0.0,0 STARLINK-3148,1 49736U 21115N   24121.23326374  .00002042  00000-0  14635-3 0  9999,2 49736  53.2166 314.7153 0000998  93.4851 266.6255 15.08840346134227,6917.879,95.438,540.435,539.054,0.0
49736.0,STARLINK-3148,PAYLOAD,2024-04-30 19:54:22,15.08840539,9.38e-05,53.2169,312.0405,96.8373,263.2726,0.00010968,1.458e-05,0.0,0 STARLINK-3148,1 49736U 21115N   24121.82942450  .00001458  00000-0  10968-3 0  9998,2 49736  53.2169 312.0405 0000938  96.8373 263.2726 15.08840539133208,6917.879,95.438,540.393,539.095,0.0
49736.0,STARLINK-3148,PAYLOAD,2024-05-01 21:20:32,15.08846279,9.63e-05,53.2169,307.2824,91.0447,269.0655,0.00010996,1.463e-05,0.0,0 STARLINK-3148,1 49736U 21115N   24122.88926058  .00001463  00000-0  10996-3 0  9998,2 49736  53.2169 307.2824 0000963  91.0447 269.0655 15.08846279133365,6917.861,95.437,540.392,539.06,0.0
49736.0,STARLINK-3148,PAYLOAD,2024-05-02 05:17:27,15.0884109,9.77e-05,53.217,305.7954,89.2809,270.8295,5.132e-05,5.29e-06,0.0,0 STARLINK-3148,1 49736U 21115N   24123.22046290  .00000529  00000-0  51320-4 0  9997,2 49736  53.2170 305.7954 0000977  89.2809 270.8295 15.08841090134525,6917.877,95.437,540.418,539.066,0.0
49736.0,STARLINK-3148,PAYLOAD,2024-05-02 11:39:00,15.0883824,0.0001009,53.2168,304.6063,88.0931,272.0177,5.1709e-05,5.35e-06,0.0,0 STARLINK-3148,1 49736U 21115N   24123.48542484  .00000535  00000-0  51709-4 0  9999,2 49736  53.2168 304.6063 0001009  88.0931 272.0177 15.08838240133458,6917.886,95.438,540.449,539.053,0.0
49736.0,STARLINK-3148,PAYLOAD,2024-05-03 05:08:14,15.08847077,0.0001038,53.2172,301.3333,80.9308,279.1801,8.7127e-05,1.099e-05,0.0,0 STARLINK-3148,1 49736U 21115N   24124.21406106  .00001099  00000-0  87127-4 0  9990,2 49736  53.2172 301.3333 0001038  80.9308 279.1801 15.08847077133560,6917.859,95.437,540.442,539.006,0.0
49736.0,STARLINK-3148,PAYLOAD,2024-05-03 17:51:19,15.08847597,0.0001061,53.2164,298.9532,85.2841,274.8272,0.0001529,2.147e-05,0.0,0 STARLINK-3148,1 49736U 21115N   24124.74397687  .00002147  00000-0  15290-3 0  9997,2 49736  53.2164 298.9532 0001061  85.2841 274.8272 15.08847597134752,6917.857,95.437,540.456,538.988,0.0
49736.0,STARLINK-3148,PAYLOAD,2024-05-04 04:59:01,15.08843076,0.0001198,53.216,296.874,72.4303,287.682,0.00013235,1.819e-05,0.0,0 STARLINK-3148,1 49736U 21115N   24125.20766009  .00001819  00000-0  13235-3 0  9999,2 49736  53.2160 296.8740 0001198  72.4303 287.6820 15.08843076134825,6917.871,95.437,540.565,538.907,0.0
49736.0,STARLINK-3148,PAYLOAD,2024-05-04 17:42:07,15.08835861,9.83e-05,53.2167,294.4931,91.725,268.3855,-9.7264e-06,-4.43e-06,0.0,0 STARLINK-3148,1 49736U 21115N   24125.73758894 -.00000443  00000-0 -97264-5 0  9990,2 49736  53.2167 294.4931 0000983  91.7250 268.3855 15.08835861134900,6917.893,95.438,540.438,539.078,0.0
